STARLINK-31791          
1 59637U 24082G   26068.22546170  .00002987  00000+0  11812-3 0  9996
2 59637  42.9988 142.1953 0000366 200.7339 159.3497 15.27551311104741
TRANSPORTER-13 OBJECT AH
1 63241U 25052AH  26068.64880921  .00014108  00000+0  55931-3 0  9999
2 63241  97.3962 323.1443 0008070 138.7508 221.4341 15.25468797 54753
